<?xml version="1.0" encoding="UTF-8"?>
<ndm xmlns:xsi="http://www.w3.org/2001/XMLSchema-instance" xsi:noNamespaceSchemaLocation="https://sanaregistry.org/r/ndmxml_unqualified/ndmxml-2.0.0-master-2.0.xsd">
<omm id="CCSDS_OMM_VERS" version="2.0">
<header><CREATION_DATE/><ORIGINATOR/></header><body><segment><metadata><OBJECT_NAME>ORBCOMM FM05</OBJECT_NAME><OBJECT_ID>1997-084F</OBJECT_ID><CENTER_NAME>EARTH</CENTER_NAME><REF_FRAME>TEME</REF_FRAME><TIME_SYSTEM>UTC</TIME_SYSTEM><MEAN_ELEMENT_THEORY>SGP4</MEAN_ELEMENT_THEORY></metadata><data><meanElements><EPOCH>2025-06-19T11:55:17.250816</EPOCH><MEAN_MOTION>14.45952833</MEAN_MOTION><ECCENTRICITY>.0002387</ECCENTRICITY><INCLINATION>45.0162</INCLINATION><RA_OF_ASC_NODE>356.9658</RA_OF_ASC_NODE><ARG_OF_PERICENTER>209.1107</ARG_OF_PERICENTER><MEAN_ANOMALY>150.9612</MEAN_ANOMALY></meanElements><tleParameters><EPHEMERIS_TYPE>0</EPHEMERIS_TYPE><CLASSIFICATION_TYPE>U</CLASSIFICATION_TYPE><NORAD_CAT_ID>25117</NORAD_CAT_ID><ELEMENT_SET_NO>999</ELEMENT_SET_NO><REV_AT_EPOCH>44094</REV_AT_EPOCH><BSTAR>.36251E-3</BSTAR><MEAN_MOTION_DOT>.1157E-4</MEAN_MOTION_DOT><MEAN_MOTION_DDOT>0</MEAN_MOTION_DDOT></tleParameters></data></segment></body></omm>
<omm id="CCSDS_OMM_VERS" version="2.0">
<header><CREATION_DATE/><ORIGINATOR/></header><body><segment><metadata><OBJECT_NAME>ORBCOMM FM06</OBJECT_NAME><OBJECT_ID>1997-084G</OBJECT_ID><CENTER_NAME>EARTH</CENTER_NAME><REF_FRAME>TEME</REF_FRAME><TIME_SYSTEM>UTC</TIME_SYSTEM><MEAN_ELEMENT_THEORY>SGP4</MEAN_ELEMENT_THEORY></metadata><data><meanElements><EPOCH>2025-06-19T11:50:45.316320</EPOCH><MEAN_MOTION>14.46085796</MEAN_MOTION><ECCENTRICITY>.0001438</ECCENTRICITY><INCLINATION>45.0155</INCLINATION><RA_OF_ASC_NODE>356.7163</RA_OF_ASC_NODE><ARG_OF_PERICENTER>197.2090</ARG_OF_PERICENTER><MEAN_ANOMALY>189.5268</MEAN_ANOMALY></meanElements><tleParameters><EPHEMERIS_TYPE>0</EPHEMERIS_TYPE><CLASSIFICATION_TYPE>U</CLASSIFICATION_TYPE><NORAD_CAT_ID>25118</NORAD_CAT_ID><ELEMENT_SET_NO>999</ELEMENT_SET_NO><REV_AT_EPOCH>44186</REV_AT_EPOCH><BSTAR>.3672E-3</BSTAR><MEAN_MOTION_DOT>.1178E-4</MEAN_MOTION_DOT><MEAN_MOTION_DDOT>0</MEAN_MOTION_DDOT></tleParameters></data></segment></body></omm>
<omm id="CCSDS_OMM_VERS" version="2.0">
<header><CREATION_DATE/><ORIGINATOR/></header><body><segment><metadata><OBJECT_NAME>ORBCOMM FM07</OBJECT_NAME><OBJECT_ID>1997-084H</OBJECT_ID><CENTER_NAME>EARTH</CENTER_NAME><REF_FRAME>TEME</REF_FRAME><TIME_SYSTEM>UTC</TIME_SYSTEM><MEAN_ELEMENT_THEORY>SGP4</MEAN_ELEMENT_THEORY></metadata><data><meanElements><EPOCH>2025-06-19T05:24:44.991072</EPOCH><MEAN_MOTION>14.46080356</MEAN_MOTION><ECCENTRICITY>.000322</ECCENTRICITY><INCLINATION>45.0150</INCLINATION><RA_OF_ASC_NODE>358.7723</RA_OF_ASC_NODE><ARG_OF_PERICENTER>205.5860</ARG_OF_PERICENTER><MEAN_ANOMALY>154.4833</MEAN_ANOMALY></meanElements><tleParameters><EPHEMERIS_TYPE>0</EPHEMERIS_TYPE><CLASSIFICATION_TYPE>U</CLASSIFICATION_TYPE><NORAD_CAT_ID>25119</NORAD_CAT_ID><ELEMENT_SET_NO>999</ELEMENT_SET_NO><REV_AT_EPOCH>44181</REV_AT_EPOCH><BSTAR>.35031E-3</BSTAR><MEAN_MOTION_DOT>.1117E-4</MEAN_MOTION_DOT><MEAN_MOTION_DDOT>0</MEAN_MOTION_DDOT></tleParameters></data></segment></body></omm>
<omm id="CCSDS_OMM_VERS" version="2.0">
<header><CREATION_DATE/><ORIGINATOR/></header><body><segment><metadata><OBJECT_NAME>ORBCOMM FM04</OBJECT_NAME><OBJECT_ID>1998-007C</OBJECT_ID><CENTER_NAME>EARTH</CENTER_NAME><REF_FRAME>TEME</REF_FRAME><TIME_SYSTEM>UTC</TIME_SYSTEM><MEAN_ELEMENT_THEORY>SGP4</MEAN_ELEMENT_THEORY></metadata><data><meanElements><EPOCH>2025-06-19T09:49:55.601184</EPOCH><MEAN_MOTION>14.34761572</MEAN_MOTION><ECCENTRICITY>.0042045</ECCENTRICITY><INCLINATION>107.9642</INCLINATION><RA_OF_ASC_NODE>143.3869</RA_OF_ASC_NODE><ARG_OF_PERICENTER>244.0717</ARG_OF_PERICENTER><MEAN_ANOMALY>115.6087</MEAN_ANOMALY></meanElements><tleParameters><EPHEMERIS_TYPE>0</EPHEMERIS_TYPE><CLASSIFICATION_TYPE>U</CLASSIFICATION_TYPE><NORAD_CAT_ID>25159</NORAD_CAT_ID><ELEMENT_SET_NO>999</ELEMENT_SET_NO><REV_AT_EPOCH>42454</REV_AT_EPOCH><BSTAR>.3005E-3</BSTAR><MEAN_MOTION_DOT>.728E-5</MEAN_MOTION_DOT><MEAN_MOTION_DDOT>0</MEAN_MOTION_DDOT></tleParameters></data></segment></body></omm>
<omm id="CCSDS_OMM_VERS" version="2.0">
<header><CREATION_DATE/><ORIGINATOR/></header><body><segment><metadata><OBJECT_NAME>ORBCOMM FM17</OBJECT_NAME><OBJECT_ID>1998-046A</OBJECT_ID><CENTER_NAME>EARTH</CENTER_NAME><REF_FRAME>TEME</REF_FRAME><TIME_SYSTEM>UTC</TIME_SYSTEM><MEAN_ELEMENT_THEORY>SGP4</MEAN_ELEMENT_THEORY></metadata><data><meanElements><EPOCH>2025-06-19T11:41:04.833600</EPOCH><MEAN_MOTION>14.35100914</MEAN_MOTION><ECCENTRICITY>.0004855</ECCENTRICITY><INCLINATION>44.9937</INCLINATION><RA_OF_ASC_NODE>246.7531</RA_OF_ASC_NODE><ARG_OF_PERICENTER>230.1655</ARG_OF_PERICENTER><MEAN_ANOMALY>129.8765</MEAN_ANOMALY></meanElements><tleParameters><EPHEMERIS_TYPE>0</EPHEMERIS_TYPE><CLASSIFICATION_TYPE>U</CLASSIFICATION_TYPE><NORAD_CAT_ID>25413</NORAD_CAT_ID><ELEMENT_SET_NO>999</ELEMENT_SET_NO><REV_AT_EPOCH>40350</REV_AT_EPOCH><BSTAR>.22747E-3</BSTAR><MEAN_MOTION_DOT>.514E-5</MEAN_MOTION_DOT><MEAN_MOTION_DDOT>0</MEAN_MOTION_DDOT></tleParameters></data></segment></body></omm>
<omm id="CCSDS_OMM_VERS" version="2.0">
<header><CREATION_DATE/><ORIGINATOR/></header><body><segment><metadata><OBJECT_NAME>ORBCOMM FM18</OBJECT_NAME><OBJECT_ID>1998-046B</OBJECT_ID><CENTER_NAME>EARTH</CENTER_NAME><REF_FRAME>TEME</REF_FRAME><TIME_SYSTEM>UTC</TIME_SYSTEM><MEAN_ELEMENT_THEORY>SGP4</MEAN_ELEMENT_THEORY></metadata><data><meanElements><EPOCH>2025-06-19T10:24:05.951808</EPOCH><MEAN_MOTION>14.38562534</MEAN_MOTION><ECCENTRICITY>.0007066</ECCENTRICITY><INCLINATION>44.9913</INCLINATION><RA_OF_ASC_NODE>164.3421</RA_OF_ASC_NODE><ARG_OF_PERICENTER>292.9637</ARG_OF_PERICENTER><MEAN_ANOMALY>67.0465</MEAN_ANOMALY></meanElements><tleParameters><EPHEMERIS_TYPE>0</EPHEMERIS_TYPE><CLASSIFICATION_TYPE>U</CLASSIFICATION_TYPE><NORAD_CAT_ID>25414</NORAD_CAT_ID><ELEMENT_SET_NO>999</ELEMENT_SET_NO><REV_AT_EPOCH>40457</REV_AT_EPOCH><BSTAR>.30753E-3</BSTAR><MEAN_MOTION_DOT>.807E-5</MEAN_MOTION_DOT><MEAN_MOTION_DDOT>0</MEAN_MOTION_DDOT></tleParameters></data></segment></body></omm>
<omm id="CCSDS_OMM_VERS" version="2.0">
<header><CREATION_DATE/><ORIGINATOR/></header><body><segment><metadata><OBJECT_NAME>ORBCOMM FM19</OBJECT_NAME><OBJECT_ID>1998-046C</OBJECT_ID><CENTER_NAME>EARTH</CENTER_NAME><REF_FRAME>TEME</REF_FRAME><TIME_SYSTEM>UTC</TIME_SYSTEM><MEAN_ELEMENT_THEORY>SGP4</MEAN_ELEMENT_THEORY></metadata><data><meanElements><EPOCH>2025-06-19T04:35:29.033664</EPOCH><MEAN_MOTION>14.38370202</MEAN_MOTION><ECCENTRICITY>.0005866</ECCENTRICITY><INCLINATION>44.9923</INCLINATION><RA_OF_ASC_NODE>167.4934</RA_OF_ASC_NODE><ARG_OF_PERICENTER>287.3098</ARG_OF_PERICENTER><MEAN_ANOMALY>172.0148</MEAN_ANOMALY></meanElements><tleParameters><EPHEMERIS_TYPE>0</EPHEMERIS_TYPE><CLASSIFICATION_TYPE>U</CLASSIFICATION_TYPE><NORAD_CAT_ID>25415</NORAD_CAT_ID><ELEMENT_SET_NO>999</ELEMENT_SET_NO><REV_AT_EPOCH>40449</REV_AT_EPOCH><BSTAR>.30111E-3</BSTAR><MEAN_MOTION_DOT>.784E-5</MEAN_MOTION_DOT><MEAN_MOTION_DDOT>0</MEAN_MOTION_DDOT></tleParameters></data></segment></body></omm>

</ndm>
