ORBCOMM FM05            
1 25117U 97084F   25170.49672744  .00001157  00000+0  36251-3 0  9995
2 25117  45.0162 356.9658 0002387 209.1107 150.9612 14.45952833440947
ORBCOMM FM06            
1 25118U 97084G   25170.49358005  .00001178  00000+0  36720-3 0  9991
2 25118  45.0155 356.7163 0001438 197.2090 189.5268 14.46085796441866
ORBCOMM FM07            
1 25119U 97084H   25170.22552073  .00001117  00000+0  35031-3 0  9991
2 25119  45.0150 358.7723 0003220 205.5860 154.4833 14.46080356441816
ORBCOMM FM04            
1 25159U 98007C   25170.40967131  .00000728  00000+0  30050-3 0  9999
2 25159 107.9642 143.3869 0042045 244.0717 115.6087 14.34761572424544
ORBCOMM FM17            
1 25413U 98046A   25170.48686150  .00000514  00000+0  22747-3 0  9999
2 25413  44.9937 246.7531 0004855 230.1655 129.8765 14.35100914403503
ORBCOMM FM18            
1 25414U 98046B   25170.43340222  .00000807  00000+0  30753-3 0  9993
2 25414  44.9913 164.3421 0007066 292.9637  67.0465 14.38562534404575
ORBCOMM FM19            
1 25415U 98046C   25170.19130826  .00000784  00000+0  30111-3 0  9996
2 25415  44.9923 167.4934 0005866 287.3098 172.0148 14.38370202404490
